[{"OBJECT_NAME":"STARLINK-30255","OBJECT_ID":"2023-119E","EPOCH":"2026-03-09T22:00:01.999584","MEAN_MOTION":15.16774249,"ECCENTRICITY":0.000133,"INCLINATION":42.9991,"RA_OF_ASC_NODE":79.5096,"ARG_OF_PERICENTER":260.6815,"MEAN_ANOMALY":336.1551,"EPHEMERIS_TYPE":0,"CLASSIFICATION_TYPE":"U","NORAD_CAT_ID":57606,"ELEMENT_SET_NO":999,"REV_AT_EPOCH":562,"BSTAR":0.0048551842,"MEAN_MOTION_DOT":0.00098184,"MEAN_MOTION_DDOT":0},{"OBJECT_NAME":"OBJECT J","OBJECT_ID":"2022-019J","EPOCH":"2026-03-09T22:43:41.570688","MEAN_MOTION":15.19970869,"ECCENTRICITY":0.00078987,"INCLINATION":97.3535,"RA_OF_ASC_NODE":134.3032,"ARG_OF_PERICENTER":206.0852,"MEAN_ANOMALY":153.9986,"EPHEMERIS_TYPE":0,"CLASSIFICATION_TYPE":"U","NORAD_CAT_ID":51832,"ELEMENT_SET_NO":999,"REV_AT_EPOCH":22272,"BSTAR":8.5341526e-5,"MEAN_MOTION_DOT":1.77e-5,"MEAN_MOTION_DDOT":0}]
